start=new Date('2023-04-18T00:00:00.000Z').valueOf();
sats=[{"RCS_SIZE":"LARGE","PERIOD":"95.919","ARG_OF_PERICENTER":"73.5457","REV_AT_EPOCH":"4234","INCLINATION":"97.6552","LAUNCH_DATE":"2022-07-11","EPOCH":"2023-04-17T18:38:43.968192","MEAN_MOTION_DDOT":"0.0000000000000","EPHEMERIS_TYPE":"0","SEMIMAJOR_AXIS":"6941.123","ELEMENT_SET_NO":"999","CLASSIFICATION_TYPE":"U","CENTER_NAME":"EARTH","MEAN_MOTION":"15.01267604","APOAPSIS":"565.337","TLE_LINE2":"2 53062  97.6552 289.7278 0003384  73.5457 286.6139 15.01267604 42344","MEAN_MOTION_DOT":"0.00000669","TLE_LINE1":"1 53062U 22077V   23107.77689778  .00000669  00000-0  56630-4 0  9991","RA_OF_ASC_NODE":"289.7278","DECAY_DATE":null,"FILE":"3889391","GP_ID":"230265860","OBJECT_NAME":"STARLINK-4311","REF_FRAME":"TEME","NORAD_CAT_ID":"53062","SITE":"AFWTR","OBJECT_TYPE":"PAYLOAD","MEAN_ANOMALY":"286.6139","PERIAPSIS":"560.640","ECCENTRICITY":"0.00033840","TIME_SYSTEM":"UTC","COUNTRY_CODE":"US","MEAN_ELEMENT_THEORY":"SGP4","OBJECT_ID":"2022-077V","BSTAR":"0.00005663000000"},{"MEAN_ANOMALY":"154.6746","PERIAPSIS":"560.292","ECCENTRICITY":"0.00038850","MEAN_ELEMENT_THEORY":"SGP4","TIME_SYSTEM":"UTC","COUNTRY_CODE":"US","BSTAR":"-0.00014201000000","OBJECT_ID":"2022-077W","RA_OF_ASC_NODE":"289.6726","DECAY_DATE":null,"OBJECT_NAME":"STARLINK-4307","GP_ID":"230265110","FILE":"3889391","SITE":"AFWTR","OBJECT_TYPE":"PAYLOAD","NORAD_CAT_ID":"53063","REF_FRAME":"TEME","CENTER_NAME":"EARTH","TLE_LINE2":"2 53063  97.6546 289.6726 0003885 205.4287 154.6746 15.01267452 42347","APOAPSIS":"565.686","MEAN_MOTION":"15.01267452","MEAN_MOTION_DOT":"-0.00001883","TLE_LINE1":"1 53063U 22077W   23107.73639032 -.00001883  00000-0 -14201-3 0  9994","PERIOD":"95.919","RCS_SIZE":"LARGE","EPOCH":"2023-04-17T17:40:24.123648","MEAN_MOTION_DDOT":"0.0000000000000","INCLINATION":"97.6546","LAUNCH_DATE":"2022-07-11","ARG_OF_PERICENTER":"205.4287","REV_AT_EPOCH":"4234","SEMIMAJOR_AXIS":"6941.124","EPHEMERIS_TYPE":"0","CLASSIFICATION_TYPE":"U","ELEMENT_SET_NO":"999"},{"MEAN_MOTION":"15.01261221","APOAPSIS":"565.419","TLE_LINE2":"2 53064  97.6548 289.7253 0003474  65.7537 294.4050 15.01261221 42344","CENTER_NAME":"EARTH","TLE_LINE1":"1 53064U 22077X   23107.77504415  .00000841  00000-0  70087-4 0  9991","MEAN_MOTION_DOT":"0.00000841","ARG_OF_PERICENTER":"65.7537","REV_AT_EPOCH":"4234","INCLINATION":"97.6548","LAUNCH_DATE":"2022-07-11","EPOCH":"2023-04-17T18:36:03.814560","MEAN_MOTION_DDOT":"0.0000000000000","PERIOD":"95.919","RCS_SIZE":"LARGE","ELEMENT_SET_NO":"999","CLASSIFICATION_TYPE":"U","EPHEMERIS_TYPE":"0","SEMIMAJOR_AXIS":"6941.143","PERIAPSIS":"560.597","ECCENTRICITY":"0.00034740","MEAN_ANOMALY":"294.4050","OBJECT_ID":"2022-077X","BSTAR":"0.00007008700000","COUNTRY_CODE":"US","TIME_SYSTEM":"UTC","MEAN_ELEMENT_THEORY":"SGP4","DECAY_DATE":null,"RA_OF_ASC_NODE":"289.7253","REF_FRAME":"TEME","NORAD_CAT_ID":"53064","SITE":"AFWTR","OBJECT_TYPE":"PAYLOAD","FILE":"3889391","GP_ID":"230265360","OBJECT_NAME":"STARLINK-4313"},{"FILE":"3889391","GP_ID":"230265611","OBJECT_NAME":"STARLINK-4312","REF_FRAME":"TEME","NORAD_CAT_ID":"53065","SITE":"AFWTR","OBJECT_TYPE":"PAYLOAD","RA_OF_ASC_NODE":"289.7197","DECAY_DATE":null,"COUNTRY_CODE":"US","TIME_SYSTEM":"UTC","MEAN_ELEMENT_THEORY":"SGP4","OBJECT_ID":"2022-077Y","BSTAR":"0.00003706100000","MEAN_ANOMALY":"300.6120","ECCENTRICITY":"0.00037130","PERIAPSIS":"560.435","EPHEMERIS_TYPE":"0","SEMIMAJOR_AXIS":"6941.147","ELEMENT_SET_NO":"999","CLASSIFICATION_TYPE":"U","PERIOD":"95.919","RCS_SIZE":"LARGE","ARG_OF_PERICENTER":"59.5470","REV_AT_EPOCH":"4234","LAUNCH_DATE":"2022-07-11","INCLINATION":"97.6546","EPOCH":"2023-04-17T18:28:03.983520","MEAN_MOTION_DDOT":"0.0000000000000","MEAN_MOTION_DOT":"0.00000417","TLE_LINE1":"1 53065U 22077Y   23107.76949055  .00000417  00000-0  37061-4 0  9998","CENTER_NAME":"EARTH","MEAN_MOTION":"15.01259893","TLE_LINE2":"2 53065  97.6546 289.7197 0003713  59.5470 300.6120 15.01259893 42343","APOAPSIS":"565.589"},{"REF_FRAME":"TEME","NORAD_CAT_ID":"53066","OBJECT_TYPE":"PAYLOAD","SITE":"AFWTR","GP_ID":"230266360","FILE":"3889391","OBJECT_NAME":"STARLINK-4309","RA_OF_ASC_NODE":"289.7218","DECAY_DATE":null,"OBJECT_ID":"2022-077Z","BSTAR":"0.00003657100000","COUNTRY_CODE":"US","TIME_SYSTEM":"UTC","MEAN_ELEMENT_THEORY":"SGP4","ECCENTRICITY":"0.00041070","PERIAPSIS":"560.158","MEAN_ANOMALY":"306.0816","ELEMENT_SET_NO":"999","CLASSIFICATION_TYPE":"U","EPHEMERIS_TYPE":"0","SEMIMAJOR_AXIS":"6941.144","REV_AT_EPOCH":"4234","ARG_OF_PERICENTER":"54.0789","LAUNCH_DATE":"2022-07-11","INCLINATION":"97.6548","EPOCH":"2023-04-17T18:30:43.947072","MEAN_MOTION_DDOT":"0.0000000000000","RCS_SIZE":"LARGE","PERIOD":"95.919","TLE_LINE1":"1 53066U 22077Z   23107.77134198  .00000411  00000-0  36571-4 0  9993","MEAN_MOTION_DOT":"0.00000411","MEAN_MOTION":"15.01260866","APOAPSIS":"565.860","TLE_LINE2":"2 53066  97.6548 289.7218 0004107  54.0789 306.0816 15.01260866 42345","CENTER_NAME":"EARTH"},{"NORAD_CAT_ID":"53067","REF_FRAME":"TEME","SITE":"AFWTR","OBJECT_TYPE":"PAYLOAD","FILE":"3889215","GP_ID":"230234965","OBJECT_NAME":"STARLINK-4306","RA_OF_ASC_NODE":"289.4523","DECAY_DATE":null,"BSTAR":"-0.00000758350000","OBJECT_ID":"2022-077AA","MEAN_ELEMENT_THEORY":"SGP4","TIME_SYSTEM":"UTC","COUNTRY_CODE":"US","ECCENTRICITY":"0.00032800","PERIAPSIS":"560.736","MEAN_ANOMALY":"310.8558","ELEMENT_SET_NO":"999","CLASSIFICATION_TYPE":"U","SEMIMAJOR_AXIS":"6941.148","EPHEMERIS_TYPE":"0","ARG_OF_PERICENTER":"49.2951","REV_AT_EPOCH":"4230","EPOCH":"2023-04-17T11:58:48.936000","MEAN_MOTION_DDOT":"0.0000000000000","INCLINATION":"97.6544","LAUNCH_DATE":"2022-07-11","PERIOD":"95.919","RCS_SIZE":"LARGE","TLE_LINE1":"1 53067U 22077AA  23107.49917750 -.00000157  00000-0 -75835-5 0  9992","MEAN_MOTION_DOT":"-0.00000157","MEAN_MOTION":"15.01259578","TLE_LINE2":"2 53067  97.6544 289.4523 0003280  49.2951 310.8558 15.01259578 42306","APOAPSIS":"565.290","CENTER_NAME":"EARTH"},{"NORAD_CAT_ID":"53068","REF_FRAME":"TEME","OBJECT_TYPE":"PAYLOAD","SITE":"AFWTR","GP_ID":"230264860","FILE":"3889391","OBJECT_NAME":"STARLINK-4325","RA_OF_ASC_NODE":"289.7178","DECAY_DATE":null,"BSTAR":"0.00004134300000","OBJECT_ID":"2022-077AB","MEAN_ELEMENT_THEORY":"SGP4","TIME_SYSTEM":"UTC","COUNTRY_CODE":"US","PERIAPSIS":"560.787","ECCENTRICITY":"0.00032020","MEAN_ANOMALY":"295.9354","ELEMENT_SET_NO":"999","CLASSIFICATION_TYPE":"U","SEMIMAJOR_AXIS":"6941.145","EPHEMERIS_TYPE":"0","REV_AT_EPOCH":"4234","ARG_OF_PERICENTER":"64.2200","MEAN_MOTION_DDOT":"0.0000000000000","EPOCH":"2023-04-17T18:25:45.050592","INCLINATION":"97.6544","LAUNCH_DATE":"2022-07-11","PERIOD":"95.919","RCS_SIZE":"LARGE","TLE_LINE1":"1 53068U 22077AB  23107.76788253  .00000472  00000-0  41343-4 0  9991","MEAN_MOTION_DOT":"0.00000472","MEAN_MOTION":"15.01260588","APOAPSIS":"565.233","TLE_LINE2":"2 53068  97.6544 289.7178 0003202  64.2200 295.9354 15.01260588 42348","CENTER_NAME":"EARTH"},{"OBJECT_NAME":"STARLINK-4323","GP_ID":"230233970","FILE":"3889215","SITE":"AFWTR","OBJECT_TYPE":"PAYLOAD","NORAD_CAT_ID":"53069","REF_FRAME":"TEME","RA_OF_ASC_NODE":"289.4474","DECAY_DATE":null,"MEAN_ELEMENT_THEORY":"SGP4","TIME_SYSTEM":"UTC","COUNTRY_CODE":"US","BSTAR":"0.00001388000000","OBJECT_ID":"2022-077AC","MEAN_ANOMALY":"295.7241","PERIAPSIS":"560.934","ECCENTRICITY":"0.00029870","SEMIMAJOR_AXIS":"6941.143","EPHEMERIS_TYPE":"0","CLASSIFICATION_TYPE":"U","ELEMENT_SET_NO":"999","RCS_SIZE":"LARGE","PERIOD":"95.919","EPOCH":"2023-04-17T11:53:28.804992","MEAN_MOTION_DDOT":"0.0000000000000","INCLINATION":"97.6538","LAUNCH_DATE":"2022-07-11","REV_AT_EPOCH":"4230","ARG_OF_PERICENTER":"64.4291","MEAN_MOTION_DOT":"0.00000119","TLE_LINE1":"1 53069U 22077AC  23107.49547228  .00000119  00000-0  13880-4 0  9990","CENTER_NAME":"EARTH","TLE_LINE2":"2 53069  97.6538 289.4474 0002987  64.4291 295.7241 15.01261329 42302","APOAPSIS":"565.081","MEAN_MOTION":"15.01261329"},{"SEMIMAJOR_AXIS":"6941.144","EPHEMERIS_TYPE":"0","ELEMENT_SET_NO":"999","CLASSIFICATION_TYPE":"U","RCS_SIZE":"LARGE","PERIOD":"95.919","ARG_OF_PERICENTER":"66.3486","REV_AT_EPOCH":"4234","MEAN_MOTION_DDOT":"0.0000000000000","EPOCH":"2023-04-17T18:25:23.847168","LAUNCH_DATE":"2022-07-11","INCLINATION":"97.6545","MEAN_MOTION_DOT":"0.00000553","TLE_LINE1":"1 53070U 22077AD  23107.76763712  .00000553  00000-0  47668-4 0  9993","CENTER_NAME":"EARTH","MEAN_MOTION":"15.01260846","TLE_LINE2":"2 53070  97.6545 289.7174 0003490  66.3486 293.8104 15.01260846 42343","APOAPSIS":"565.432","GP_ID":"230265861","FILE":"3889391","OBJECT_NAME":"STARLINK-4342","NORAD_CAT_ID":"53070","REF_FRAME":"TEME","OBJECT_TYPE":"PAYLOAD","SITE":"AFWTR","RA_OF_ASC_NODE":"289.7174","DECAY_DATE":null,"MEAN_ELEMENT_THEORY":"SGP4","TIME_SYSTEM":"UTC","COUNTRY_CODE":"US","BSTAR":"0.00004766800000","OBJECT_ID":"2022-077AD","MEAN_ANOMALY":"293.8104","ECCENTRICITY":"0.00034900","PERIAPSIS":"560.587"},{"RA_OF_ASC_NODE":"289.4443","DECAY_DATE":null,"GP_ID":"230235466","FILE":"3889215","OBJECT_NAME":"STARLINK-4328","REF_FRAME":"TEME","NORAD_CAT_ID":"53071","OBJECT_TYPE":"PAYLOAD","SITE":"AFWTR","MEAN_ANOMALY":"304.8897","PERIAPSIS":"561.546","ECCENTRICITY":"0.00021200","COUNTRY_CODE":"US","TIME_SYSTEM":"UTC","MEAN_ELEMENT_THEORY":"SGP4","OBJECT_ID":"2022-077AE","BSTAR":"-0.00001802400000","PERIOD":"95.920","RCS_SIZE":"LARGE","REV_AT_EPOCH":"4230","ARG_OF_PERICENTER":"55.2526","LAUNCH_DATE":"2022-07-11","INCLINATION":"97.6534","EPOCH":"2023-04-17T11:50:49.041888","MEAN_MOTION_DDOT":"0.0000000000000","EPHEMERIS_TYPE":"0","SEMIMAJOR_AXIS":"6941.153","ELEMENT_SET_NO":"999","CLASSIFICATION_TYPE":"U","CENTER_NAME":"EARTH","MEAN_MOTION":"15.01258128","APOAPSIS":"564.489","TLE_LINE2":"2 53071  97.6534 289.4443 0002120  55.2526 304.8897 15.01258128 42307","MEAN_MOTION_DOT":"-0.00000291","TLE_LINE1":"1 53071U 22077AE  23107.49362317 -.00000291  00000-0 -18024-4 0  9995"}];
